[{"OBJECT_NAME":"SITRO-AIS 5 (KATYS)","OBJECT_ID":"2023-091L","EPOCH":"2026-03-09T22:36:44.932608","MEAN_MOTION":15.27079182,"ECCENTRICITY":0.00133776,"INCLINATION":97.5176,"RA_OF_ASC_NODE":132.0172,"ARG_OF_PERICENTER":94.5677,"MEAN_ANOMALY":265.709,"EPHEMERIS_TYPE":0,"CLASSIFICATION_TYPE":"U","NORAD_CAT_ID":57176,"ELEMENT_SET_NO":999,"REV_AT_EPOCH":14918,"BSTAR":0.00057530772,"MEAN_MOTION_DOT":0.00015262,"MEAN_MOTION_DDOT":0},{"OBJECT_NAME":"STARLINK-36459","OBJECT_ID":"2026-005Z","EPOCH":"2026-03-08T21:47:44.345760","MEAN_MOTION":15.27551516,"ECCENTRICITY":0.00014883,"INCLINATION":43.0005,"RA_OF_ASC_NODE":242.6774,"ARG_OF_PERICENTER":264.8725,"MEAN_ANOMALY":95.1957,"EPHEMERIS_TYPE":0,"CLASSIFICATION_TYPE":"U","NORAD_CAT_ID":67427,"ELEMENT_SET_NO":999,"REV_AT_EPOCH":856,"BSTAR":0.0012378071,"MEAN_MOTION_DOT":0.00033927,"MEAN_MOTION_DDOT":0}]
